{
  "norad_id": 68810,
  "name": "STARLINK-37447",
  "history": [
    {
      "epoch": "2026-04-27T12:56:09.598272Z",
      "apogee_km": 267.06559357643346,
      "perigee_km": 266.3067547699429,
      "latitude_deg": -1.3504459581206492e-05,
      "longitude_deg": -86.87945576502797,
      "height_km": 270.15378488182483,
      "semi_major_axis_km": 6644.823174173188,
      "eccentricity": 5.71e-05,
      "inclination_deg": 97.2861,
      "raan_deg": 322.6879,
      "arg_perigee_deg": 133.8721,
      "mean_anomaly_deg": 226.2606,
      "mean_motion_rev_day": 16.02793673
    },
    {
      "epoch": "2026-04-29T20:00:01.999008Z",
      "apogee_km": 295.13407994884255,
      "perigee_km": 292.9349322204371,
      "latitude_deg": -47.246643985994886,
      "longitude_deg": -20.523976503513044,
      "height_km": 313.17439780997864,
      "semi_major_axis_km": 6672.171506084639,
      "eccentricity": 0.0001648,
      "inclination_deg": 97.2846,
      "raan_deg": 325.1757,
      "arg_perigee_deg": 94.673,
      "mean_anomaly_deg": 132.7881,
      "mean_motion_rev_day": 15.92949325
    },
    {
      "epoch": "2026-04-30T14:00:01.999872Z",
      "apogee_km": 304.13856899799885,
      "perigee_km": 301.78989467096017,
      "latitude_deg": -21.23485385245485,
      "longitude_deg": 74.6152464837631,
      "height_km": 311.8055520180591,
      "semi_major_axis_km": 6681.101231834479,
      "eccentricity": 0.00017577,
      "inclination_deg": 97.2845,
      "raan_deg": 325.9826,
      "arg_perigee_deg": 80.479,
      "mean_anomaly_deg": 120.672,
      "mean_motion_rev_day": 15.89756772
    }
  ]
}